{
    "links": {
        "self": "http://www.neowsapp.com/rest/v1/neo/3840742?api_key=iIulBulltgU6a56xZRHN4H3l9WmuAYTsLGpBGhQ2"
    },
    "id": "3840742",
    "neo_reference_id": "3840742",
    "name": "(2019 FR2)",
    "designation": "2019 FR2",
    "nasa_jpl_url": "http://ssd.jpl.nasa.gov/sbdb.cgi?sstr=3840742",
    "absolute_magnitude_h": 27.6,
    "estimated_diameter": {
        "kilometers": {
            "estimated_diameter_min": 0.0080270317,
            "estimated_diameter_max": 0.0179489885
        },
        "meters": {
            "estimated_diameter_min": 8.0270316728,
            "estimated_diameter_max": 17.948988478
        },
        "miles": {
            "estimated_diameter_min": 0.0049877647,
            "estimated_diameter_max": 0.0111529809
        },
        "feet": {
            "estimated_diameter_min": 26.3354065935,
            "estimated_diameter_max": 58.8877593581
        }
    },
    "is_potentially_hazardous_asteroid": false,
    "close_approach_data": [
        {
            "close_approach_date": "1928-01-05",
            "close_approach_date_full": "1928-Jan-05 10:43",
            "epoch_date_close_approach": -1325078220000,
            "relative_velocity": {
                "kilometers_per_second": "5.8532951459",
                "kilometers_per_hour": "21071.8625251102",
                "miles_per_hour": "13093.2359117831"
            },
            "miss_distance": {
                "astronomical": "1.618363913",
                "lunar": "629.543562157",
                "kilometers": "242103794.26966531",
                "miles": "150436321.934228878"
            },
            "orbiting_body": "Juptr"
        },
        {
            "close_approach_date": "1939-12-10",
            "close_approach_date_full": "1939-Dec-10 03:02",
            "epoch_date_close_approach": -948661080000,
            "relative_velocity": {
                "kilometers_per_second": "5.4892592545",
                "kilometers_per_hour": "19761.3333162952",
                "miles_per_hour": "12278.9240264502"
            },
            "miss_distance": {
                "astronomical": "1.483088372",
                "lunar": "576.921376708",
                "kilometers": "221866861.47296764",
                "miles": "137861674.988487832"
            },
            "orbiting_body": "Juptr"
        },
        {
            "close_approach_date": "2019-04-01",
            "close_approach_date_full": "2019-Apr-01 04:32",
            "epoch_date_close_approach": 1554093120000,
            "relative_velocity": {
                "kilometers_per_second": "8.2507930115",
                "kilometers_per_hour": "29702.8548414886",
                "miles_per_hour": "18456.1988874794"
            },
            "miss_distance": {
                "astronomical": "0.0054637425",
                "lunar": "2.1253958325",
                "kilometers": "817364.240228475",
                "miles": "507886.587863955"
            },
            "orbiting_body": "Earth"
        },
        {
            "close_approach_date": "2019-04-01",
            "close_approach_date_full": "2019-Apr-01 13:54",
            "epoch_date_close_approach": 1554126840000,
            "relative_velocity": {
                "kilometers_per_second": "8.7364677305",
                "kilometers_per_hour": "31451.2838298013",
                "miles_per_hour": "19542.6046663563"
            },
            "miss_distance": {
                "astronomical": "0.0066674193",
                "lunar": "2.5936261077",
                "kilometers": "997431.725676891",
                "miles": "619775.3349714558"
            },
            "orbiting_body": "Moon"
        },
        {
            "close_approach_date": "2082-09-17",
            "close_approach_date_full": "2082-Sep-17 06:05",
            "epoch_date_close_approach": 3556850700000,
            "relative_velocity": {
                "kilometers_per_second": "4.0574678107",
                "kilometers_per_hour": "14606.8841186804",
                "miles_per_hour": "9076.1497458545"
            },
            "miss_distance": {
                "astronomical": "1.124856517",
                "lunar": "437.569185113",
                "kilometers": "168276138.99881879",
                "miles": "104561944.172087702"
            },
            "orbiting_body": "Juptr"
        }
    ],
    "orbital_data": {
        "orbit_id": "3",
        "orbit_determination_date": "2019-04-24 07:00:46",
        "first_observation_date": "2019-03-31",
        "last_observation_date": "2019-04-02",
        "data_arc_in_days": 2,
        "observations_used": 124,
        "orbit_uncertainty": "7",
        "minimum_orbit_intersection": ".00419081",
        "jupiter_tisserand_invariant": "3.238",
        "epoch_osculation": "2459000.5",
        "eccentricity": ".5911476126416958",
        "semi_major_axis": "2.438098269694526",
        "inclination": "1.088048342086061",
        "ascending_node_longitude": "180.2895506067298",
        "orbital_period": "1390.513585241074",
        "perihelion_distance": ".9968222981787577",
        "perihelion_argument": "20.88848859541082",
        "aphelion_distance": "3.879374241210295",
        "perihelion_time": "2458582.878880380101",
        "mean_anomaly": "108.1209163714128",
        "mean_motion": ".2588971469398386",
        "equinox": "J2000",
        "orbit_class": {
            "orbit_class_type": "APO",
            "orbit_class_description": "Near-Earth asteroid orbits which cross the Earth’s orbit similar to that of 1862 Apollo",
            "orbit_class_range": "a (semi-major axis) > 1.0 AU; q (perihelion) < 1.017 AU"
        }
    },
    "is_sentry_object": false
}